{"type":"FeatureCollection","features":[{"type":"Feature","geometry":{"type":"Polygon","coordinates":[[[25.85,-24.75],[25.875,-24.75],[25.875,-24.725],[25.85,-24.725],[25.85,-24.75]]]},"properties":{"cell_id":0,"row":0,"col":0,"population":2103,"vulnerability":0.21727930214811497,"access_min":142.0393560480167,"elevation_m":985.0446114668014,"data_status":"synthetic","heat_c":30.697598671218124}},{"type":"Feature","geometry":{"type":"Polygon","coordinates":[[[25.875000000000004,-24.75],[25.900000000000002,-24.75],[25.900000000000002,-24.725],[25.875000000000004,-24.725],[25.875000000000004,-24.75]]]},"properties":{"cell_id":1,"row":0,"col":1,"population":757,"vulnerability":0.50408797352248,"access_min":126.22552438128663,"elevation_m":1002.8753993278932,"data_status":"synthetic","heat_c":32.302437055973535}},{"type":"Feature","geometry":{"type":"Polygon","coordinates":[[[25.900000000000002,-24.75],[25.925,-24.75],[25.925,-24.725],[25.900000000000002,-24.725],[25.900000000000002,-24.75]]]},"properties":{"cell_id":2,"row":0,"col":2,"population":452,"vulnerability":0.5052185544353768,"access_min":121.14857502882533,"elevation_m":1005.3855392384584,"data_status":"synthetic","heat_c":31.308410252489406}},{"type":"Feature","geometry":{"type":"Polygon","coordinates":[[[25.925,-24.75],[25.95,-24.75],[25.95,-24.725],[25.925,-24.725],[25.925,-24.75]]]},"properties":{"cell_id":3,"row":0,"col":3,"population":1679,"vulnerability":0.6049086124350037,"access_min":128.14372198849833,"elevation_m":990.8938815352706,"data_status":"synthetic","heat_c":32.143505037519844}},{"type":"Feature","geometry":{"type":"Polygon","coordinates":[[[25.950000000000003,-24.75],[25.975,-24.75],[25.975,-24.725],[25.950000000000003,-24.725],[25.950000000000003,-24.75]]]},"properties":{"cell_id":4,"row":0,"col":4,"population":1130,"vulnerability":0.42535342317695396,"access_min":145.41823995970202,"elevation_m":969.1061184647266,"data_status":"synthetic","heat_c":31.810538269458256}},{"type":"Feature","geometry":{"type":"Polygon","coordinates":[[[25.975,-24.75],[26.0,-24.75],[26.0,-24.725],[25.975,-24.725],[25.975,-24.75]]]},"properties":{"cell_id":5,"row":0,"col":5,"population":1334,"vulnerability":0.6769988082289906,"access_min":169.77017031557946,"elevation_m":954.6144607615406,"data_status":"synthetic","heat_c":32.275594147675726}},{"type":"Feature","geometry":{"type":"Polygon","coordinates":[[[26.0,-24.75],[26.025,-24.75],[26.025,-24.725],[26.0,-24.725],[26.0,-24.75]]]},"properties":{"cell_id":6,"row":0,"col":6,"population":559,"vulnerability":0.5958054090384918,"access_min":198.54626579325887,"elevation_m":957.1246006721084,"data_status":"synthetic","heat_c":32.18464977323619}},{"type":"Feature","geometry":{"type":"Polygon","coordinates":[[[26.025000000000002,-24.75],[26.05,-24.75],[26.05,-24.725],[26.025000000000002,-24.725],[26.025000000000002,-24.75]]]},"properties":{"cell_id":7,"row":0,"col":7,"population":1141,"vulnerability":0.6664355747270161,"access_min":209.50161394486727,"elevation_m":974.9553885332018,"data_status":"synthetic","heat_c":33.79727049823524}},{"type":"Feature","geometry":{"type":"Polygon","coordinates":[[[25.85,-24.724999999999998],[25.875,-24.724999999999998],[25.875,-24.7],[25.85,-24.7],[25.85,-24.724999999999998]]]},"properties":{"cell_id":8,"row":1,"col":0,"population":1686,"vulnerability":0.3394626374626074,"access_min":109.06063115345194,"elevation_m":981.1127074808355,"data_status":"synthetic","heat_c":31.418212962823898}},{"type":"Feature","geometry":{"type":"Polygon","coordinates":[[[25.875000000000004,-24.724999999999998],[25.900000000000002,-24.724999999999998],[25.900000000000002,-24.7],[25.875000000000004,-24.7],[25.875000000000004,-24.724999999999998]]]},"properties":{"cell_id":9,"row":1,"col":1,"population":1109,"vulnerability":0.4471191720782224,"access_min":87.12464679691226,"elevation_m":985.0457063198539,"data_status":"synthetic","heat_c":31.091144945692797}},{"type":"Feature","geometry":{"type":"Polygon","coordinates":[[[25.900000000000002,-24.724999999999998],[25.925,-24.724999999999998],[25.925,-24.7],[25.900000000000002,-24.7],[25.900000000000002,-24.724999999999998]]]},"properties":{"cell_id":10,"row":1,"col":2,"population":2062,"vulnerability":0.4296782206778318,"access_min":79.42661708842033,"elevation_m":985.5993766024536,"data_status":"synthetic","heat_c":32.59833597475792}},{"type":"Feature","geometry":{"type":"Polygon","coordinates":[[[25.925,-24.724999999999998],[25.95,-24.724999999999998],[25.95,-24.7],[25.925,-24.7],[25.925,-24.724999999999998]]]},"properties":{"cell_id":11,"row":1,"col":3,"population":1981,"vulnerability":0.39302414615512365,"access_min":89.93059587204272,"elevation_m":982.4029013055623,"data_status":"synthetic","heat_c":32.33446761925422}},{"type":"Feature","geometry":{"type":"Polygon","coordinates":[[[25.950000000000003,-24.724999999999998],[25.975,-24.724999999999998],[25.975,-24.7],[25.950000000000003,-24.7],[25.950000000000003,-24.724999999999998]]]},"properties":{"cell_id":12,"row":1,"col":4,"population":1808,"vulnerability":0.4325194192176523,"access_min":113.47171042894149,"elevation_m":977.597098694437,"data_status":"synthetic","heat_c":32.64919779987212}},{"type":"Feature","geometry":{"type":"Polygon","coordinates":[[[25.975,-24.724999999999998],[26.0,-24.724999999999998],[26.0,-24.7],[25.975,-24.7],[25.975,-24.724999999999998]]]},"properties":{"cell_id":13,"row":1,"col":5,"population":2210,"vulnerability":0.7681702482698504,"access_min":143.55698782748104,"elevation_m":974.4006233975462,"data_status":"synthetic","heat_c":33.43668821284607}},{"type":"Feature","geometry":{"type":"Polygon","coordinates":[[[26.0,-24.724999999999998],[26.025,-24.724999999999998],[26.025,-24.7],[26.0,-24.7],[26.0,-24.724999999999998]]]},"properties":{"cell_id":14,"row":1,"col":6,"population":1842,"vulnerability":0.729360517903507,"access_min":158.3748108768747,"elevation_m":974.9542936801465,"data_status":"synthetic","heat_c":33.874053003919215}},{"type":"Feature","geometry":{"type":"Polygon","coordinates":[[[26.025000000000002,-24.724999999999998],[26.05,-24.724999999999998],[26.05,-24.7],[26.025000000000002,-24.7],[26.025000000000002,-24.724999999999998]]]},"properties":{"cell_id":15,"row":1,"col":7,"population":754,"vulnerability":0.8076891644366563,"access_min":171.15652246016305,"elevation_m":978.8872925191652,"data_status":"synthetic","heat_c":34.725600869198516}},{"type":"Feature","geometry":{"type":"Polygon","coordinates":[[[25.85,-24.7],[25.875,-24.7],[25.875,-24.675],[25.85,-24.675],[25.85,-24.7]]]},"properties":{"cell_id":16,"row":2,"col":0,"population":2116,"vulnerability":0.5406967650602995,"access_min":84.76675282381389,"elevation_m":976.6635574094073,"data_status":"synthetic","heat_c":30.591350394466247}},{"type":"Feature","geometry":{"type":"Polygon","coordinates":[[[25.875000000000004,-24.7],[25.900000000000002,-24.7],[25.900000000000002,-24.675],[25.875000000000004,-24.675],[25.875000000000004,-24.7]]]},"properties":{"cell_id":17,"row":2,"col":1,"population":1705,"vulnerability":0.24400943754569834,"access_min":52.734447849726294,"elevation_m":964.8704985316157,"data_status":"synthetic","heat_c":30.154984042648064}},{"type":"Feature","geometry":{"type":"Polygon","coordinates":[[[25.900000000000002,-24.7],[25.925,-24.7],[25.925,-24.675],[25.900000000000002,-24.675],[25.900000000000002,-24.7]]]},"properties":{"cell_id":18,"row":2,"col":2,"population":596,"vulnerability":0.7122827306378883,"access_min":37.763412997228954,"elevation_m":963.2103235585633,"data_status":"synthetic","heat_c":32.05195214197921}},{"type":"Feature","geometry":{"type":"Polygon","coordinates":[[[25.925,-24.7],[25.95,-24.7],[25.95,-24.675],[25.925,-24.675],[25.925,-24.7]]]},"properties":{"cell_id":19,"row":2,"col":3,"population":996,"vulnerability":0.8464915743011775,"access_min":57.41494076292454,"elevation_m":972.7949237378642,"data_status":"synthetic","heat_c":32.071389614396814}},{"type":"Feature","geometry":{"type":"Polygon","coordinates":[[[25.950000000000003,-24.7],[25.975,-24.7],[25.975,-24.675],[25.950000000000003,-24.675],[25.950000000000003,-24.7]]]},"properties":{"cell_id":20,"row":2,"col":4,"population":731,"vulnerability":0.7258269761548294,"access_min":90.44139432020515,"elevation_m":987.2050762621377,"data_status":"synthetic","heat_c":32.877378967990715}},{"type":"Feature","geometry":{"type":"Polygon","coordinates":[[[25.975,-24.7],[26.0,-24.7],[26.0,-24.675],[25.975,-24.675],[25.975,-24.7]]]},"properties":{"cell_id":21,"row":2,"col":5,"population":2333,"vulnerability":0.6941049889574521,"access_min":112.66181417395131,"elevation_m":996.7896764414372,"data_status":"synthetic","heat_c":34.34755589045339}},{"type":"Feature","geometry":{"type":"Polygon","coordinates":[[[26.0,-24.7],[26.025,-24.7],[26.025,-24.675],[26.0,-24.675],[26.0,-24.7]]]},"properties":{"cell_id":22,"row":2,"col":6,"population":1855,"vulnerability":0.5784283740311926,"access_min":118.12030105828963,"elevation_m":995.1295014683833,"data_status":"synthetic","heat_c":33.14256137899443}},{"type":"Feature","geometry":{"type":"Polygon","coordinates":[[[26.025000000000002,-24.7],[26.05,-24.7],[26.05,-24.675],[26.025000000000002,-24.675],[26.025000000000002,-24.7]]]},"properties":{"cell_id":23,"row":2,"col":7,"population":2239,"vulnerability":0.840660087403676,"access_min":134.92443902536453,"elevation_m":983.3364425905907,"data_status":"synthetic","heat_c":34.718435448862664}},{"type":"Feature","geometry":{"type":"Polygon","coordinates":[[[25.85,-24.675],[25.875,-24.675],[25.875,-24.650000000000002],[25.85,-24.650000000000002],[25.85,-24.675]]]},"properties":{"cell_id":24,"row":3,"col":0,"population":964,"vulnerability":0.22555513004233876,"access_min":78.3631024838486,"elevation_m":973.7653647091471,"data_status":"synthetic","heat_c":31.862683479775388}},{"type":"Feature","geometry":{"type":"Polygon","coordinates":[[[25.875000000000004,-24.675],[25.900000000000002,-24.675],[25.900000000000002,-24.650000000000002],[25.875000000000004,-24.650000000000002],[25.875000000000004,-24.675]]]},"properties":{"cell_id":25,"row":3,"col":1,"population":1671,"vulnerability":0.33931489660719066,"access_min":41.027593057523205,"elevation_m":951.7282940657336,"data_status":"synthetic","heat_c":32.02689528129717}},{"type":"Feature","geometry":{"type":"Polygon","coordinates":[[[25.900000000000002,-24.675],[25.925,-24.675],[25.925,-24.650000000000002],[25.900000000000002,-24.650000000000002],[25.900000000000002,-24.675]]]},"properties":{"cell_id":26,"row":3,"col":2,"population":1608,"vulnerability":0.37029581354241786,"access_min":14.635931777843062,"elevation_m":948.6260121606989,"data_status":"synthetic","heat_c":32.876849018272736}},{"type":"Feature","geometry":{"type":"Polygon","coordinates":[[[25.925,-24.675],[25.95,-24.675],[25.95,-24.650000000000002],[25.925,-24.650000000000002],[25.925,-24.675]]]},"properties":{"cell_id":27,"row":3,"col":3,"population":1905,"vulnerability":0.5024421930553191,"access_min":47.0325583944297,"elevation_m":966.5362518558372,"data_status":"synthetic","heat_c":32.38601734045201}},{"type":"Feature","geometry":{"type":"Polygon","coordinates":[[[25.950000000000003,-24.675],[25.975,-24.675],[25.975,-24.650000000000002],[25.950000000000003,-24.650000000000002],[25.950000000000003,-24.675]]]},"properties":{"cell_id":28,"row":3,"col":4,"population":636,"vulnerability":0.6861867275768204,"access_min":82.60548282937566,"elevation_m":993.4637481441663,"data_status":"synthetic","heat_c":32.70741946956792}},{"type":"Feature","geometry":{"type":"Polygon","coordinates":[[[25.975,-24.675],[26.0,-24.675],[26.0,-24.650000000000002],[25.975,-24.650000000000002],[25.975,-24.675]]]},"properties":{"cell_id":29,"row":3,"col":5,"population":1430,"vulnerability":0.5281821182268431,"access_min":70.94487228911005,"elevation_m":1011.3739878393022,"data_status":"synthetic","heat_c":34.195005556366624}},{"type":"Feature","geometry":{"type":"Polygon","coordinates":[[[26.0,-24.675],[26.025,-24.675],[26.025,-24.650000000000002],[26.0,-24.650000000000002],[26.0,-24.675]]]},"properties":{"cell_id":30,"row":3,"col":6,"population":1689,"vulnerability":0.5398385485823968,"access_min":79.52424076445658,"elevation_m":1008.2717059342644,"data_status":"synthetic","heat_c":34.45908647516455}},{"type":"Feature","geometry":{"type":"Polygon","coordinates":[[[26.025000000000002,-24.675],[26.05,-24.675],[26.05,-24.650000000000002],[26.025000000000002,-24.650000000000002],[26.025000000000002,-24.675]]]},"properties":{"cell_id":31,"row":3,"col":7,"population":2051,"vulnerability":0.6009670258553119,"access_min":103.17341700305784,"elevation_m":986.234635290849,"data_status":"synthetic","heat_c":35.316423932161356}},{"type":"Feature","geometry":{"type":"Polygon","coordinates":[[[25.85,-24.65],[25.875,-24.65],[25.875,-24.625],[25.85,-24.625],[25.85,-24.65]]]},"properties":{"cell_id":32,"row":4,"col":0,"population":1712,"vulnerability":0.16248490866861423,"access_min":93.80790959174828,"elevation_m":973.7653647091473,"data_status":"synthetic","heat_c":31.645176699817192}},{"type":"Feature","geometry":{"type":"Polygon","coordinates":[[[25.875000000000004,-24.65],[25.900000000000002,-24.65],[25.900000000000002,-24.625],[25.875000000000004,-24.625],[25.875000000000004,-24.65]]]},"properties":{"cell_id":33,"row":4,"col":1,"population":1296,"vulnerability":0.17018063332641495,"access_min":66.66593436832815,"elevation_m":951.7282940657345,"data_status":"synthetic","heat_c":32.94723140969264}},{"type":"Feature","geometry":{"type":"Polygon","coordinates":[[[25.900000000000002,-24.65],[25.925,-24.65],[25.925,-24.625],[25.900000000000002,-24.625],[25.900000000000002,-24.65]]]},"properties":{"cell_id":34,"row":4,"col":2,"population":1320,"vulnerability":0.295595705836469,"access_min":55.96617683550246,"elevation_m":948.6260121607,"data_status":"synthetic","heat_c":32.25913596659945}},{"type":"Feature","geometry":{"type":"Polygon","coordinates":[[[25.925,-24.65],[25.95,-24.65],[25.95,-24.625],[25.925,-24.625],[25.925,-24.65]]]},"properties":{"cell_id":35,"row":4,"col":3,"population":1077,"vulnerability":0.6235744722581302,"access_min":70.35622361475306,"elevation_m":966.5362518558378,"data_status":"synthetic","heat_c":32.247477213890676}},{"type":"Feature","geometry":{"type":"Polygon","coordinates":[[[25.950000000000003,-24.65],[25.975,-24.65],[25.975,-24.625],[25.950000000000003,-24.625],[25.950000000000003,-24.65]]]},"properties":{"cell_id":36,"row":4,"col":4,"population":714,"vulnerability":0.4604199655349337,"access_min":52.59790925219773,"elevation_m":993.4637481441658,"data_status":"synthetic","heat_c":32.11671177390019}},{"type":"Feature","geometry":{"type":"Polygon","coordinates":[[[25.975,-24.65],[26.0,-24.65],[26.0,-24.625],[25.975,-24.625],[25.975,-24.65]]]},"properties":{"cell_id":37,"row":4,"col":5,"population":955,"vulnerability":0.625705124117188,"access_min":29.324394776169907,"elevation_m":1011.3739878393011,"data_status":"synthetic","heat_c":33.13341510317947}},{"type":"Feature","geometry":{"type":"Polygon","coordinates":[[[26.0,-24.65],[26.025,-24.65],[26.025,-24.625],[26.0,-24.625],[26.0,-24.65]]]},"properties":{"cell_id":38,"row":4,"col":6,"population":692,"vulnerability":0.5120597326873377,"access_min":47.38882472443202,"elevation_m":1008.2717059342634,"data_status":"synthetic","heat_c":34.74064856570234}},{"type":"Feature","geometry":{"type":"Polygon","coordinates":[[[26.025000000000002,-24.65],[26.05,-24.65],[26.05,-24.625],[26.025000000000002,-24.625],[26.025000000000002,-24.65]]]},"properties":{"cell_id":39,"row":4,"col":7,"population":852,"vulnerability":0.7416798816533026,"access_min":81.68748141682715,"elevation_m":986.2346352908488,"data_status":"synthetic","heat_c":33.825879834050696}},{"type":"Feature","geometry":{"type":"Polygon","coordinates":[[[25.85,-24.625],[25.875,-24.625],[25.875,-24.6],[25.85,-24.6],[25.85,-24.625]]]},"properties":{"cell_id":40,"row":5,"col":0,"population":2107,"vulnerability":0.1,"access_min":122.79997816661977,"elevation_m":976.6635574094079,"data_status":"synthetic","heat_c":31.469024401813627}},{"type":"Feature","geometry":{"type":"Polygon","coordinates":[[[25.875000000000004,-24.625],[25.900000000000002,-24.625],[25.900000000000002,-24.6],[25.875000000000004,-24.6],[25.875000000000004,-24.625]]]},"properties":{"cell_id":41,"row":5,"col":1,"population":1451,"vulnerability":0.25806228368441586,"access_min":103.9579583031042,"elevation_m":964.8704985316183,"data_status":"synthetic","heat_c":33.45968391265532}},{"type":"Feature","geometry":{"type":"Polygon","coordinates":[[[25.900000000000002,-24.625],[25.925,-24.625],[25.925,-24.6],[25.900000000000002,-24.6],[25.900000000000002,-24.625]]]},"properties":{"cell_id":42,"row":5,"col":2,"population":583,"vulnerability":0.6756924660845778,"access_min":97.66898742960161,"elevation_m":963.2103235585662,"data_status":"synthetic","heat_c":33.159101688259405}},{"type":"Feature","geometry":{"type":"Polygon","coordinates":[[[25.925,-24.625],[25.95,-24.625],[25.95,-24.6],[25.925,-24.6],[25.925,-24.625]]]},"properties":{"cell_id":43,"row":5,"col":3,"population":1261,"vulnerability":0.398426235359181,"access_min":85.911722657352,"elevation_m":972.7949237378655,"data_status":"synthetic","heat_c":34.180905441878984}},{"type":"Feature","geometry":{"type":"Polygon","coordinates":[[[25.950000000000003,-24.625],[25.975,-24.625],[25.975,-24.6],[25.950000000000003,-24.6],[25.950000000000003,-24.625]]]},"properties":{"cell_id":44,"row":5,"col":4,"population":941,"vulnerability":0.666014567970579,"access_min":49.65199900542822,"elevation_m":987.2050762621365,"data_status":"synthetic","heat_c":32.966667979932346}},{"type":"Feature","geometry":{"type":"Polygon","coordinates":[[[25.975,-24.625],[26.0,-24.625],[26.0,-24.6],[25.975,-24.6],[25.975,-24.625]]]},"properties":{"cell_id":45,"row":5,"col":5,"population":1726,"vulnerability":0.6494587001853668,"access_min":22.886202258368723,"elevation_m":996.7896764414344,"data_status":"synthetic","heat_c":32.54091089420014}},{"type":"Feature","geometry":{"type":"Polygon","coordinates":[[[26.0,-24.625],[26.025,-24.625],[26.025,-24.6],[26.0,-24.6],[26.0,-24.625]]]},"properties":{"cell_id":46,"row":5,"col":6,"population":2060,"vulnerability":0.6397287153510628,"access_min":44.05192071485003,"elevation_m":995.1295014683807,"data_status":"synthetic","heat_c":35.382015024310775}},{"type":"Feature","geometry":{"type":"Polygon","coordinates":[[[26.025000000000002,-24.625],[26.05,-24.625],[26.05,-24.6],[26.025000000000002,-24.6],[26.025000000000002,-24.625]]]},"properties":{"cell_id":47,"row":5,"col":7,"population":425,"vulnerability":0.6430689935086553,"access_min":79.89465839468475,"elevation_m":983.3364425905901,"data_status":"synthetic","heat_c":34.077311524405694}},{"type":"Feature","geometry":{"type":"Polygon","coordinates":[[[25.85,-24.6],[25.875,-24.6],[25.875,-24.575000000000003],[25.85,-24.575000000000003],[25.85,-24.6]]]},"properties":{"cell_id":48,"row":6,"col":0,"population":1331,"vulnerability":0.43310731574437367,"access_min":157.81398809027806,"elevation_m":981.1127074808362,"data_status":"synthetic","heat_c":32.01763707669971}},{"type":"Feature","geometry":{"type":"Polygon","coordinates":[[[25.875000000000004,-24.6],[25.900000000000002,-24.6],[25.900000000000002,-24.575000000000003],[25.875000000000004,-24.575000000000003],[25.875000000000004,-24.6]]]},"properties":{"cell_id":49,"row":6,"col":1,"population":1295,"vulnerability":0.320626976253632,"access_min":143.80906890948614,"elevation_m":985.0457063198568,"data_status":"synthetic","heat_c":32.548629476942025}},{"type":"Feature","geometry":{"type":"Polygon","coordinates":[[[25.900000000000002,-24.6],[25.925,-24.6],[25.925,-24.575000000000003],[25.900000000000002,-24.575000000000003],[25.900000000000002,-24.6]]]},"properties":{"cell_id":50,"row":6,"col":2,"population":2381,"vulnerability":0.5884387322217963,"access_min":136.1188921392503,"elevation_m":985.5993766024569,"data_status":"synthetic","heat_c":32.304326275351556}},{"type":"Feature","geometry":{"type":"Polygon","coordinates":[[[25.925,-24.6],[25.95,-24.6],[25.95,-24.575000000000003],[25.925,-24.575000000000003],[25.925,-24.6]]]},"properties":{"cell_id":51,"row":6,"col":3,"population":1130,"vulnerability":0.3820931146770711,"access_min":103.79391157040077,"elevation_m":982.4029013055638,"data_status":"synthetic","heat_c":34.260534546741134}},{"type":"Feature","geometry":{"type":"Polygon","coordinates":[[[25.950000000000003,-24.6],[25.975,-24.6],[25.975,-24.575000000000003],[25.950000000000003,-24.575000000000003],[25.950000000000003,-24.6]]]},"properties":{"cell_id":52,"row":6,"col":4,"population":730,"vulnerability":0.538498080210558,"access_min":77.16183974359771,"elevation_m":977.5970986944357,"data_status":"synthetic","heat_c":34.713847809973934}},{"type":"Feature","geometry":{"type":"Polygon","coordinates":[[[25.975,-24.6],[26.0,-24.6],[26.0,-24.575000000000003],[25.975,-24.575000000000003],[25.975,-24.6]]]},"properties":{"cell_id":53,"row":6,"col":5,"population":790,"vulnerability":0.650712100385678,"access_min":64.4427988172427,"elevation_m":974.400623397543,"data_status":"synthetic","heat_c":34.57040238176203}},{"type":"Feature","geometry":{"type":"Polygon","coordinates":[[[26.0,-24.6],[26.025,-24.6],[26.025,-24.575000000000003],[26.0,-24.575000000000003],[26.0,-24.6]]]},"properties":{"cell_id":54,"row":6,"col":6,"population":1355,"vulnerability":0.7028662293814134,"access_min":73.83736348465743,"elevation_m":974.9542936801436,"data_status":"synthetic","heat_c":34.67713206614876}},{"type":"Feature","geometry":{"type":"Polygon","coordinates":[[[26.025000000000002,-24.6],[26.05,-24.6],[26.05,-24.575000000000003],[26.025000000000002,-24.575000000000003],[26.025000000000002,-24.6]]]},"properties":{"cell_id":55,"row":6,"col":7,"population":1589,"vulnerability":0.5732656306433856,"access_min":98.92944136987316,"elevation_m":978.8872925191645,"data_status":"synthetic","heat_c":35.26497914663103}},{"type":"Feature","geometry":{"type":"Polygon","coordinates":[[[25.85,-24.575],[25.875,-24.575],[25.875,-24.55],[25.85,-24.55],[25.85,-24.575]]]},"properties":{"cell_id":56,"row":7,"col":0,"population":1053,"vulnerability":0.19899066004160237,"access_min":195.55887569477548,"elevation_m":985.0446114668017,"data_status":"synthetic","heat_c":31.52817814588661}},{"type":"Feature","geometry":{"type":"Polygon","coordinates":[[[25.875000000000004,-24.575],[25.900000000000002,-24.575],[25.900000000000002,-24.55],[25.875000000000004,-24.55],[25.875000000000004,-24.575]]]},"properties":{"cell_id":57,"row":7,"col":1,"population":1270,"vulnerability":0.31839536577804106,"access_min":184.5230563507644,"elevation_m":1002.8753993278951,"data_status":"synthetic","heat_c":32.49757528335251}},{"type":"Feature","geometry":{"type":"Polygon","coordinates":[[[25.900000000000002,-24.575],[25.925,-24.575],[25.925,-24.55],[25.900000000000002,-24.55],[25.900000000000002,-24.575]]]},"properties":{"cell_id":58,"row":7,"col":2,"population":1726,"vulnerability":0.3027038777102773,"access_min":159.56708584244276,"elevation_m":1005.3855392384605,"data_status":"synthetic","heat_c":33.03334423484595}},{"type":"Feature","geometry":{"type":"Polygon","coordinates":[[[25.925,-24.575],[25.95,-24.575],[25.95,-24.55],[25.925,-24.55],[25.925,-24.575]]]},"properties":{"cell_id":59,"row":7,"col":3,"population":999,"vulnerability":0.5496616113420004,"access_min":133.29285682913482,"elevation_m":990.8938815352715,"data_status":"synthetic","heat_c":33.040254996925185}},{"type":"Feature","geometry":{"type":"Polygon","coordinates":[[[25.950000000000003,-24.575],[25.975,-24.575],[25.975,-24.55],[25.950000000000003,-24.55],[25.950000000000003,-24.575]]]},"properties":{"cell_id":60,"row":7,"col":4,"population":2329,"vulnerability":0.6021797034866693,"access_min":114.11531178153412,"elevation_m":969.1061184647257,"data_status":"synthetic","heat_c":34.51641421305194}},{"type":"Feature","geometry":{"type":"Polygon","coordinates":[[[25.975,-24.575],[26.0,-24.575],[26.0,-24.55],[25.975,-24.55],[25.975,-24.575]]]},"properties":{"cell_id":61,"row":7,"col":5,"population":818,"vulnerability":0.3600020706694313,"access_min":106.1546661367033,"elevation_m":954.6144607615385,"data_status":"synthetic","heat_c":33.60628704045816}},{"type":"Feature","geometry":{"type":"Polygon","coordinates":[[[26.0,-24.575],[26.025,-24.575],[26.025,-24.55],[26.0,-24.55],[26.0,-24.575]]]},"properties":{"cell_id":62,"row":7,"col":6,"population":2270,"vulnerability":0.44145652006523084,"access_min":111.94579356627155,"elevation_m":957.1246006721065,"data_status":"synthetic","heat_c":34.64541507626803}},{"type":"Feature","geometry":{"type":"Polygon","coordinates":[[[26.025000000000002,-24.575],[26.05,-24.575],[26.05,-24.55],[26.025000000000002,-24.55],[26.025000000000002,-24.575]]]},"properties":{"cell_id":63,"row":7,"col":7,"population":2149,"vulnerability":0.5675342188468737,"access_min":129.58555336015954,"elevation_m":974.9553885332014,"data_status":"synthetic","heat_c":34.02103035813521}}]}